QIANFAN-17              
1 60395U 24140S   25304.59103949  .00000070  00000+0  90230-4 0  9992
2 60395  88.9742 303.8008 0014079 335.1273  24.9198 13.50970932 62448
QIANFAN-18              
1 60396U 24140T   25304.64450634  .00000053  00000+0  63869-4 0  9994
2 60396  88.9734 303.3319 0012887 316.5478  43.4657 13.50971002 61843
QIANFAN-19              
1 61552U 24185A   25304.62836227  .00000791  00000+0  40756-3 0  9990
2 61552  88.9790  82.7600 0008997  83.8809 276.3402 14.14226927 63713
QIANFAN-20              
1 61553U 24185B   25304.56903720  .00000565  00000+0  31979-3 0  9993
2 61553  88.9788  83.0481 0007824 113.1972 247.0037 14.08773567 63559
QIANFAN-21              
1 61554U 24185C   25304.61669481  .00001007  00000+0  44496-3 0  9993
2 61554  88.9706  81.9065 0012233 133.7443 226.4763 14.22515797 63985
QIANFAN-22              
1 61555U 24185D   25304.63706395  .00000282  00000+0  23226-3 0  9994
2 61555  88.9772  83.8530 0008337 118.1963 242.0050 13.86279612 63100
QIANFAN-23              
1 61556U 24185E   25304.66311581  .00000784  00000+0  38894-3 0  9991
2 61556  88.9783  82.5855 0009902  92.8625 267.3696 14.16225430 63795
QIANFAN-24              
1 61557U 24185F   25304.65496800  .00000844  00000+0  36307-3 0  9993
2 61557  88.9764  82.0602 0011524  79.2996 280.9493 14.23721092 64030
